{
  "type": "FeatureCollection",
  "features": [
    {
      "type": "Feature",
      "properties": {
        "norad_id": 37846,
        "name": "GSAT0101 (GALILEO-PFM)",
        "group": "gnss",
        "lat": 55.033123508377585,
        "lon": 55.01181993743725,
        "alt_km": 23220.71856864268,
        "timestamp": "2025-12-07T03:52:32.737892+00:00",
        "meta_object_name": "GSAT0101 (GALILEO-PFM)",
        "meta_object_id": "2011-060A",
        "meta_epoch": "2025-12-06T10:45:46.943136",
        "meta_mean_motion": 1.70475516,
        "meta_eccentricity": 0.00028809,
        "meta_inclination": 57.0541,
        "meta_ra_of_asc_node": 346.9907,
        "meta_arg_of_pericenter": 311.6243,
        "meta_mean_anomaly": 48.3737,
        "meta_ephemeris_type": 0,
        "meta_classification_type": "U",
        "meta_norad_cat_id": 37846,
        "meta_element_set_no": 999,
        "meta_rev_at_epoch": 8783,
        "meta_bstar": 0,
        "meta_mean_motion_dot": -8.1e-07,
        "meta_mean_motion_ddot": 0,
        "tle_line1": "1 37846U 11060A   25340.44845999 -.00000081  00000+0  00000+0 0  9990",
        "tle_line2": "2 37846  57.0541 346.9907 0002880 311.6243  48.3737  1.70475516 87832"
      },
      "geometry": {
        "type": "Point",
        "coordinates": [
          55.01181993743725,
          55.033123508377585
        ]
      }
    },
    {
      "type": "Feature",
      "properties": {
        "norad_id": 37847,
        "name": "GSAT0102 (GALILEO-FM2)",
        "group": "gnss",
        "lat": 44.66620078948501,
        "lon": 127.09923939177011,
        "alt_km": 23230.973879540255,
        "timestamp": "2025-12-07T03:52:32.737909+00:00",
        "meta_object_name": "GSAT0102 (GALILEO-FM2)",
        "meta_object_id": "2011-060B",
        "meta_epoch": "2025-12-06T01:52:21.849024",
        "meta_mean_motion": 1.7047572,
        "meta_eccentricity": 0.00048425,
        "meta_inclination": 57.055,
        "meta_ra_of_asc_node": 347.0012,
        "meta_arg_of_pericenter": 307.2223,
        "meta_mean_anomaly": 230.8964,
        "meta_ephemeris_type": 0,
        "meta_classification_type": "U",
        "meta_norad_cat_id": 37847,
        "meta_element_set_no": 999,
        "meta_rev_at_epoch": 8783,
        "meta_bstar": 0,
        "meta_mean_motion_dot": -7.9e-07,
        "meta_mean_motion_ddot": 0,
        "tle_line1": "1 37847U 11060B   25340.07803066 -.00000079  00000+0  00000+0 0  9996",
        "tle_line2": "2 37847  57.0550 347.0012 0004842 307.2223 230.8964  1.70475720 87838"
      },
      "geometry": {
        "type": "Point",
        "coordinates": [
          127.09923939177011,
          44.66620078948501
        ]
      }
    },
    {
      "type": "Feature",
      "properties": {
        "norad_id": 37867,
        "name": "COSMOS 2476 (744)",
        "group": "gnss",
        "lat": 65.12067910537611,
        "lon": 165.0636081694545,
        "alt_km": 19173.17831239178,
        "timestamp": "2025-12-07T03:52:32.737931+00:00",
        "meta_object_name": "COSMOS 2476 (744)",
        "meta_object_id": "2011-064A",
        "meta_epoch": "2025-12-02T19:57:36.313920",
        "meta_mean_motion": 2.13101261,
        "meta_eccentricity": 0.00239603,
        "meta_inclination": 65.1573,
        "meta_ra_of_asc_node": 79.5068,
        "meta_arg_of_pericenter": 233.4935,
        "meta_mean_anomaly": 133.1658,
        "meta_ephemeris_type": 0,
        "meta_classification_type": "U",
        "meta_norad_cat_id": 37867,
        "meta_element_set_no": 999,
        "meta_rev_at_epoch": 10958,
        "meta_bstar": 0,
        "meta_mean_motion_dot": -2.2e-07,
        "meta_mean_motion_ddot": 0,
        "tle_line1": "1 37867U 11064A   25336.83167030 -.00000022  00000+0  00000+0 0  9993",
        "tle_line2": "2 37867  65.1573  79.5068 0023960 233.4935 133.1658  2.13101261109581"
      },
      "geometry": {
        "type": "Point",
        "coordinates": [
          165.0636081694545,
          65.12067910537611
        ]
      }
    },
    {
      "type": "Feature",
      "properties": {
        "norad_id": 37868,
        "name": "COSMOS 2477 (745)",
        "group": "gnss",
        "lat": -65.1815261160098,
        "lon": -11.99886260453111,
        "alt_km": 19092.93074156496,
        "timestamp": "2025-12-07T03:52:32.737945+00:00",
        "meta_object_name": "COSMOS 2477 (745)",
        "meta_object_id": "2011-064B",
        "meta_epoch": "2025-12-01T05:34:43.743072",
        "meta_mean_motion": 2.1310269,
        "meta_eccentricity": 0.00209845,
        "meta_inclination": 65.1625,
        "meta_ra_of_asc_node": 79.6383,
        "meta_arg_of_pericenter": 233.8301,
        "meta_mean_anomaly": 166.8442,
        "meta_ephemeris_type": 0,
        "meta_classification_type": "U",
        "meta_norad_cat_id": 37868,
        "meta_element_set_no": 999,
        "meta_rev_at_epoch": 10954,
        "meta_bstar": 0,
        "meta_mean_motion_dot": -1.2e-07,
        "meta_mean_motion_ddot": 0,
        "tle_line1": "1 37868U 11064B   25335.23245073 -.00000012  00000+0  00000+0 0  9990",
        "tle_line2": "2 37868  65.1625  79.6383 0020984 233.8301 166.8442  2.13102690109542"
      },
      "geometry": {
        "type": "Point",
        "coordinates": [
          -11.99886260453111,
          -65.1815261160098
        ]
      }
    },
    {
      "type": "Feature",
      "properties": {
        "norad_id": 37869,
        "name": "COSMOS 2475 (743)",
        "group": "gnss",
        "lat": -40.04164832719117,
        "lon": -77.68300514624978,
        "alt_km": 19073.58712343309,
        "timestamp": "2025-12-07T03:52:32.737966+00:00",
        "meta_object_name": "COSMOS 2475 (743)",
        "meta_object_id": "2011-064C",
        "meta_epoch": "2025-12-06T09:48:35.599968",
        "meta_mean_motion": 2.13101358,
        "meta_eccentricity": 0.00262013,
        "meta_inclination": 65.1724,
        "meta_ra_of_asc_node": 79.4831,
        "meta_arg_of_pericenter": 248.5015,
        "meta_mean_anomaly": 119.2303,
        "meta_ephemeris_type": 0,
        "meta_classification_type": "U",
        "meta_norad_cat_id": 37869,
        "meta_element_set_no": 999,
        "meta_rev_at_epoch": 10966,
        "meta_bstar": 0,
        "meta_mean_motion_dot": -1.6e-07,
        "meta_mean_motion_ddot": 0,
        "tle_line1": "1 37869U 11064C   25340.40874537 -.00000016  00000+0  00000+0 0  9993",
        "tle_line2": "2 37869  65.1724  79.4831 0026201 248.5015 119.2303  2.13101358109663"
      },
      "geometry": {
        "type": "Point",
        "coordinates": [
          -77.68300514624978,
          -40.04164832719117
        ]
      }
    },
    {
      "type": "Feature",
      "properties": {
        "norad_id": 37948,
        "name": "BEIDOU-2 IGSO-5 (C10)",
        "group": "gnss",
        "lat": -32.17599567458641,
        "lon": -120.50577315137376,
        "alt_km": 35798.07518397103,
        "timestamp": "2025-12-07T03:52:32.737981+00:00",
        "meta_object_name": "BEIDOU-2 IGSO-5 (C10)",
        "meta_object_id": "2011-073A",
        "meta_epoch": "2025-12-05T19:16:03.972000",
        "meta_mean_motion": 1.00291877,
        "meta_eccentricity": 0.01105894,
        "meta_inclination": 48.0339,
        "meta_ra_of_asc_node": 273.9433,
        "meta_arg_of_pericenter": 222.1593,
        "meta_mean_anomaly": 320.3155,
        "meta_ephemeris_type": 0,
        "meta_classification_type": "U",
        "meta_norad_cat_id": 37948,
        "meta_element_set_no": 999,
        "meta_rev_at_epoch": 5119,
        "meta_bstar": 0,
        "meta_mean_motion_dot": -1.79e-06,
        "meta_mean_motion_ddot": 0,
        "tle_line1": "1 37948U 11073A   25339.80282375 -.00000179  00000+0  00000+0 0  9996",
        "tle_line2": "2 37948  48.0339 273.9433 0110589 222.1593 320.3155  1.00291877 51199"
      },
      "geometry": {
        "type": "Point",
        "coordinates": [
          -120.50577315137376,
          -32.17599567458641
        ]
      }
    },
    {
      "type": "Feature",
      "properties": {
        "norad_id": 37951,
        "name": "LUCH 5A (SDCM/PRN 140)",
        "group": "gnss",
        "lat": -5.826288549324604,
        "lon": -58.9083718380323,
        "alt_km": 35769.6166679404,
        "timestamp": "2025-12-07T03:52:32.737994+00:00",
        "meta_object_name": "LUCH 5A (SDCM/PRN 140)",
        "meta_object_id": "2011-074B",
        "meta_epoch": "2025-12-06T12:36:51.616224",
        "meta_mean_motion": 1.00273718,
        "meta_eccentricity": 0.00058874,
        "meta_inclination": 8.2635,
        "meta_ra_of_asc_node": 76.6761,
        "meta_arg_of_pericenter": 176.6176,
        "meta_mean_anomaly": 178.4899,
        "meta_ephemeris_type": 0,
        "meta_classification_type": "U",
        "meta_norad_cat_id": 37951,
        "meta_element_set_no": 999,
        "meta_rev_at_epoch": 5111,
        "meta_bstar": 0,
        "meta_mean_motion_dot": -4.6e-07,
        "meta_mean_motion_ddot": 0,
        "tle_line1": "1 37951U 11074B   25340.52559741 -.00000046  00000+0  00000+0 0  9999",
        "tle_line2": "2 37951   8.2635  76.6761 0005887 176.6176 178.4899  1.00273718 51119"
      },
      "geometry": {
        "type": "Point",
        "coordinates": [
          -58.9083718380323,
          -5.826288549324604
        ]
      }
    }
  ]
}